{
    "links": {
        "self": "http://www.neowsapp.com/rest/v1/neo/3836193?api_key=iIulBulltgU6a56xZRHN4H3l9WmuAYTsLGpBGhQ2"
    },
    "id": "3836193",
    "neo_reference_id": "3836193",
    "name": "(2018 VS7)",
    "designation": "2018 VS7",
    "nasa_jpl_url": "http://ssd.jpl.nasa.gov/sbdb.cgi?sstr=3836193",
    "absolute_magnitude_h": 26.1,
    "estimated_diameter": {
        "kilometers": {
            "estimated_diameter_min": 0.0160160338,
            "estimated_diameter_max": 0.0358129403
        },
        "meters": {
            "estimated_diameter_min": 16.0160337979,
            "estimated_diameter_max": 35.8129403019
        },
        "miles": {
            "estimated_diameter_min": 0.0099518989,
            "estimated_diameter_max": 0.0222531225
        },
        "feet": {
            "estimated_diameter_min": 52.5460443254,
            "estimated_diameter_max": 117.4965270602
        }
    },
    "is_potentially_hazardous_asteroid": false,
    "close_approach_data": [
        {
            "close_approach_date": "2018-11-16",
            "close_approach_date_full": "2018-Nov-16 04:53",
            "epoch_date_close_approach": 1542343980000,
            "relative_velocity": {
                "kilometers_per_second": "10.5417406212",
                "kilometers_per_hour": "37950.2662362602",
                "miles_per_hour": "23580.8195955251"
            },
            "miss_distance": {
                "astronomical": "0.0817753211",
                "lunar": "31.8105999079",
                "kilometers": "12233413.855126057",
                "miles": "7601490.8837593066"
            },
            "orbiting_body": "Earth"
        },
        {
            "close_approach_date": "2019-03-25",
            "close_approach_date_full": "2019-Mar-25 00:27",
            "epoch_date_close_approach": 1553473620000,
            "relative_velocity": {
                "kilometers_per_second": "8.2808548219",
                "kilometers_per_hour": "29811.0773589613",
                "miles_per_hour": "18523.4441511835"
            },
            "miss_distance": {
                "astronomical": "0.3054994544",
                "lunar": "118.8392877616",
                "kilometers": "45702067.664402128",
                "miles": "28397948.0163122464"
            },
            "orbiting_body": "Earth"
        }
    ],
    "orbital_data": {
        "orbit_id": "1",
        "orbit_determination_date": "2018-11-12 09:42:07",
        "first_observation_date": "2018-11-10",
        "last_observation_date": "2018-11-12",
        "data_arc_in_days": 2,
        "observations_used": 13,
        "orbit_uncertainty": "9",
        "minimum_orbit_intersection": ".0811442",
        "jupiter_tisserand_invariant": "4.748",
        "epoch_osculation": "2458433.5",
        "eccentricity": ".2842221445634776",
        "semi_major_axis": "1.366857400580651",
        "inclination": "16.63745319153102",
        "ascending_node_longitude": "225.7909498358085",
        "orbital_period": "583.6913262171572",
        "perihelion_distance": ".9783662588751579",
        "perihelion_argument": "237.0722982116195",
        "aphelion_distance": "1.755348542286144",
        "perihelion_time": "2458482.904580430234",
        "mean_anomaly": "329.5290161836888",
        "mean_motion": ".616764347575837",
        "equinox": "J2000",
        "orbit_class": {
            "orbit_class_type": "APO",
            "orbit_class_description": "Near-Earth asteroid orbits which cross the Earth’s orbit similar to that of 1862 Apollo",
            "orbit_class_range": "a (semi-major axis) > 1.0 AU; q (perihelion) < 1.017 AU"
        }
    },
    "is_sentry_object": false
}